{
  "norad_id": 45047,
  "name": "STARLINK-1131",
  "history": [
    {
      "epoch": "2026-03-28T13:00:23.639328",
      "apogee_km": 475.862772038422,
      "perigee_km": 474.59640696001316,
      "latitude_deg": 42.96721498825847,
      "longitude_deg": 176.72626591986045,
      "semi_major_axis_km": 6853.366589499217,
      "eccentricity": 9.239e-05,
      "inclination_deg": 53.1588,
      "raan_deg": 193.4102,
      "arg_perigee_deg": 100.1289,
      "mean_anomaly_deg": 259.9816,
      "mean_motion_rev_day": 15.30195137
    }
  ]
}